OBJECT_NAME,OBJECT_ID,EPOCH,MEAN_MOTION,ECCENTRICITY,INCLINATION,RA_OF_ASC_NODE,ARG_OF_PERICENTER,MEAN_ANOMALY,EPHEMERIS_TYPE,CLASSIFICATION_TYPE,NORAD_CAT_ID,ELEMENT_SET_NO,REV_AT_EPOCH,BSTAR,MEAN_MOTION_DOT,MEAN_MOTION_DDOT
PELICAN-1,2023-174AS,2026-06-14T06:10:31.193472,15.73027562,.00005525,97.4025,265.4416,272.7073,87.4128,0,U,58296,999,14570,.93679128E-4,.12626E-3,0
UMBRA-07,2023-174AT,2026-06-15T02:47:41.057952,15.09099388,.00044931,97.3787,221.9568,93.1345,267.0399,0,U,58297,999,14310,.58749409E-3,.926E-4,0
SPIP,2023-174AU,2026-06-15T07:38:14.557920,15.27638312,.00093263,97.3849,242.8460,182.8336,177.2852,0,U,58298,999,14449,.14574947E-3,.3867E-4,0
AETHER-2,2023-174AV,2026-06-15T04:15:09.088128,15.34537253,.00080581,97.3907,249.4394,146.9490,213.2258,0,U,58299,999,14492,.16165809E-3,.5332E-4,0
ION SCV-013,2023-174AW,2026-06-15T07:14:45.394656,15.05087584,.00981951,97.6154,221.4066,201.8774,157.8247,0,U,58300,999,14125,.17907458E-3,.2766E-4,0
LEO EXPRESS 1,2023-174AX,2026-06-15T06:51:31.014432,15.35277443,.00741821,97.5198,251.7278,128.3911,232.4026,0,U,58301,999,14460,.34310616E-3,.12788E-3,0
ICEYE-X35,2023-174AY,2026-06-15T07:22:12.914688,15.52291612,.00094501,97.3805,250.8268,198.7795,161.3111,0,U,58302,999,14505,.62770788E-3,.38254E-3,0
FLOCK 4Q-29,2023-174BA,2026-06-15T05:23:05.669952,15.55929181,.00061008,97.3940,257.8972,146.2687,213.8957,0,U,58304,999,14545,.41007802E-3,.28421E-3,0
FLOCK 4Q-33,2023-174BE,2026-06-15T05:50:54.450528,15.58011984,.00065263,97.3870,258.2332,139.0986,221.0760,0,U,58308,999,14553,.38234313E-3,.28628E-3,0
FLOCK 4Q-35,2023-174BF,2026-06-15T05:31:11.590464,15.57157140,.00060622,97.3886,258.2577,156.1767,203.9770,0,U,58309,999,14550,.42640433E-3,.3094E-3,0
FLOCK 4Q-7,2023-174BQ,2026-06-14T19:47:31.637472,15.55446317,.00067614,97.3921,257.2314,145.9254,214.2436,0,U,58318,999,14538,.44179283E-3,.30099E-3,0
FLOCK 4Q-2,2023-174BS,2026-06-15T04:41:38.863680,15.49531624,.00069602,97.3837,254.5878,140.0275,220.1490,0,U,58320,999,14529,.36008942E-3,.19795E-3,0
PROTOMETHEE,2023-174BT,2026-06-15T05:59:50.082144,15.31145142,.00077485,97.3776,244.6753,163.1629,196.9871,0,U,58321,999,14467,.96503364E-4,.2828E-4,0
FLOCK 4Q-9,2023-174BU,2026-06-15T05:17:07.521216,15.49828075,.00075966,97.3877,254.6926,143.8859,216.2906,0,U,58322,999,14528,.42567034E-3,.23679E-3,0
OBSERVER-1A,2023-174BV,2026-06-15T06:36:43.827264,15.38610033,.00088744,97.3950,250.0323,155.0204,205.1472,0,U,58323,999,14491,.28856266E-3,.10935E-3,0
PICO-01A003,2023-174BY,2026-06-15T04:36:28.690272,15.46027225,.00063478,97.3804,251.5022,159.2332,200.9176,0,U,58326,999,14510,.37778754E-3,.18386E-3,0
FLOCK 4Q-4,2023-174BZ,2026-06-15T03:26:16.866528,15.48513508,.00067965,97.3835,253.8080,161.7068,198.4429,0,U,58327,999,14524,.41368757E-3,.21964E-3,0
FLOCK 4Q-13,2023-174CA,2026-06-15T06:01:50.542752,15.51613142,.00071868,97.4006,257.0099,146.0288,214.1425,0,U,58328,999,14537,.30893073E-3,.18267E-3,0
OUTPOST MISSION 2,2023-174CG,2026-06-15T07:18:46.198368,15.57591716,.0005869,97.3976,259.1886,127.9819,232.1968,0,U,58334,999,14553,.46793395E-3,.34532E-3,0
LEMUR-2-JK0903EM1407,2023-174CJ,2026-06-15T03:28:08.675040,15.51590538,.00057954,97.3929,256.5570,125.3675,234.8119,0,U,58336,999,14541,.44113906E-3,.26121E-3,0
LEMUR-2-MJR092620,2023-174CN,2026-06-15T03:37:07.040352,15.44812030,.00070676,97.3985,256.1419,123.5226,236.6699,0,U,58340,999,14533,.34883202E-3,.16278E-3,0
O3B MPOWER F5,2023-175A,2026-06-14T21:50:13.801344,5.00116006,.0005125,0.0489,11.5659,90.3719,258.1199,0,U,58346,999,4932,0,-.16E-6,0
O3B MPOWER F6,2023-175B,2026-06-15T00:14:54.200256,5.00115888,.00045149,0.0525,3.6835,75.7031,280.6644,0,U,58347,999,4824,0,-.17E-6,0
HAIYANG-3A,2023-176A,2026-06-15T06:48:24.126048,14.34171786,.00102313,98.5471,244.2759,37.6025,322.5873,0,U,58349,999,13504,.48921229E-4,.93E-6,0
STARLINK-30907,2023-177B,2026-06-14T16:19:17.635872,15.27577285,.00012813,42.9973,162.6088,272.5556,87.5149,0,U,58352,999,14315,-.4431377E-5,-.384E-5,0
STARLINK-30896,2023-177C,2026-06-14T07:51:15.342624,15.27578030,.00013576,43.0110,23.0473,268.1070,91.9626,0,U,58353,999,14461,-.87994433E-4,-.2683E-4,0
STARLINK-30832,2023-177D,2026-06-15T06:15:48.415392,15.27578073,.0001355,43.0036,160.0828,264.4332,95.6365,0,U,58354,999,14309,.16529765E-4,.193E-5,0
STARLINK-30903,2023-177E,2026-06-14T16:22:59.746944,15.27576535,.00010636,43.0003,162.6393,266.8221,93.2509,0,U,58355,999,14306,-.3244151E-5,-.351E-5,0
STARLINK-30905,2023-177F,2026-06-14T16:28:32.642688,15.27574439,.0001087,43.0004,162.6317,262.4864,97.5865,0,U,58356,999,14300,-.2034868E-5,-.318E-5,0
STARLINK-30842,2023-177G,2026-06-14T15:43:22.748160,15.27764443,.0001844,43.0097,149.5297,103.5805,256.5253,0,U,58357,999,14321,.30410015E-3,.8162E-4,0
