PELICAN-1               
1 58296U 23174AS  26165.25730548  .00012626  00000+0  93679-4 0  9995
2 58296  97.4025 265.4416 0000552 272.7073  87.4128 15.73027562145702
UMBRA-07                
1 58297U 23174AT  26166.11644743  .00009260  00000+0  58749-3 0  9991
2 58297  97.3787 221.9568 0004493  93.1345 267.0399 15.09099388143109
SPIP                    
1 58298U 23174AU  26166.31822405  .00003867  00000+0  14575-3 0  9993
2 58298  97.3849 242.8460 0009326 182.8336 177.2852 15.27638312144493
AETHER-2                
1 58299U 23174AV  26166.17718852  .00005332  00000+0  16166-3 0  9995
2 58299  97.3907 249.4394 0008058 146.9490 213.2258 15.34537253144920
ION SCV-013             
1 58300U 23174AW  26166.30191429  .00002766  00000+0  17907-3 0  9990
2 58300  97.6154 221.4066 0098195 201.8774 157.8247 15.05087584141252
LEO EXPRESS 1           
1 58301U 23174AX  26166.28577563  .00012788  00000+0  34311-3 0  9998
2 58301  97.5198 251.7278 0074182 128.3911 232.4026 15.35277443144602
ICEYE-X35               
1 58302U 23174AY  26166.30709392  .00038254  00000+0  62771-3 0  9996
2 58302  97.3805 250.8268 0009450 198.7795 161.3111 15.52291612145050
FLOCK 4Q-29             
1 58304U 23174BA  26166.22437118  .00028421  00000+0  41008-3 0  9998
2 58304  97.3940 257.8972 0006100 146.2687 213.8957 15.55929181145455
FLOCK 4Q-33             
1 58308U 23174BE  26166.24368577  .00028628  00000+0  38234-3 0  9992
2 58308  97.3870 258.2332 0006526 139.0986 221.0760 15.58011984145538
FLOCK 4Q-35             
1 58309U 23174BF  26166.22999526  .00030940  00000+0  42640-3 0  9991
2 58309  97.3886 258.2577 0006062 156.1767 203.9770 15.57157140145500
FLOCK 4Q-7              
1 58318U 23174BQ  26165.82467173  .00030099  00000+0  44179-3 0  9998
2 58318  97.3921 257.2314 0006761 145.9254 214.2436 15.55446317145386
FLOCK 4Q-2              
1 58320U 23174BS  26166.19558870  .00019795  00000+0  36009-3 0  9990
2 58320  97.3837 254.5878 0006960 140.0275 220.1490 15.49531624145295
PROTOMETHEE             
1 58321U 23174BT  26166.24988521  .00002828  00000+0  96503-4 0  9992
2 58321  97.3776 244.6753 0007748 163.1629 196.9871 15.31145142144675
FLOCK 4Q-9              
1 58322U 23174BU  26166.22022594  .00023679  00000+0  42567-3 0  9997
2 58322  97.3877 254.6926 0007596 143.8859 216.2906 15.49828075145287
OBSERVER-1A             
1 58323U 23174BV  26166.27550726  .00010935  00000+0  28856-3 0  9992
2 58323  97.3950 250.0323 0008874 155.0204 205.1472 15.38610033144915
PICO-01A003             
1 58326U 23174BY  26166.19199873  .00018386  00000+0  37779-3 0  9990
2 58326  97.3804 251.5022 0006347 159.2332 200.9176 15.46027225145109
FLOCK 4Q-4              
1 58327U 23174BZ  26166.14325077  .00021964  00000+0  41369-3 0  9999
2 58327  97.3835 253.8080 0006796 161.7068 198.4429 15.48513508145248
FLOCK 4Q-13             
1 58328U 23174CA  26166.25127943  .00018267  00000+0  30893-3 0  9996
2 58328  97.4006 257.0099 0007186 146.0288 214.1425 15.51613142145375
OUTPOST MISSION 2       
1 58334U 23174CG  26166.30470137  .00034532  00000+0  46793-3 0  9994
2 58334  97.3976 259.1886 0005869 127.9819 232.1968 15.57591716145536
LEMUR-2-JK0903EM1407    
1 58336U 23174CJ  26166.14454485  .00026121  00000+0  44114-3 0  9996
2 58336  97.3929 256.5570 0005795 125.3675 234.8119 15.51590538145416
LEMUR-2-MJR092620       
1 58340U 23174CN  26166.15077593  .00016278  00000+0  34883-3 0  9997
2 58340  97.3985 256.1419 0007067 123.5226 236.6699 15.44812030145337
O3B MPOWER F5           
1 58346U 23175A   26165.90988196 -.00000016  00000+0  00000+0 0  9990
2 58346   0.0489  11.5659 0005125  90.3719 258.1199  5.00116006 49320
O3B MPOWER F6           
1 58347U 23175B   26166.01034954 -.00000017  00000+0  00000+0 0  9999
2 58347   0.0525   3.6835 0004514  75.7031 280.6644  5.00115888 48247
HAIYANG-3A              
1 58349U 23176A   26166.28361257  .00000093  00000+0  48921-4 0  9992
2 58349  98.5471 244.2759 0010231  37.6025 322.5873 14.34171786135043
STARLINK-30907          
1 58352U 23177B   26165.68006523 -.00000384  00000+0 -44314-5 0  9990
2 58352  42.9973 162.6088 0001281 272.5556  87.5149 15.27577285143151
STARLINK-30896          
1 58353U 23177C   26165.32726091 -.00002683  00000+0 -87994-4 0  9995
2 58353  43.0110  23.0473 0001357 268.1070  91.9626 15.27578030144611
STARLINK-30832          
1 58354U 23177D   26166.26097703  .00000193  00000+0  16530-4 0  9991
2 58354  43.0036 160.0828 0001355 264.4332  95.6365 15.27578073143092
STARLINK-30903          
1 58355U 23177E   26165.68263596 -.00000351  00000+0 -32442-5 0  9991
2 58355  43.0003 162.6393 0001063 266.8221  93.2509 15.27576535143063
STARLINK-30905          
1 58356U 23177F   26165.68648892 -.00000318  00000+0 -20349-5 0  9994
2 58356  43.0004 162.6317 0001087 262.4864  97.5865 15.27574439143009
STARLINK-30842          
1 58357U 23177G   26165.65512440  .00008162  00000+0  30410-3 0  9992
2 58357  43.0097 149.5297 0001844 103.5805 256.5253 15.27764443143211
